#dP2021  5 15 18  0  0.00000000      96 __u+U ITR00 EXT  IAC
## 2157 583200.00000000   900.00000000 59349 0.7500000000000
+  116   C06C07C08C09C10C11C12C13C14C16C19C20C21C22C23C24C25
+        C26C27C28C29C30C32C33C34C35C36C37C38C39C40C41C42C43
+        C44C45C46E01E02E03E04E05E07E08E09E11E12E13E14E15E18
+        E19E21E24E25E26E27E30E31E33E36G01G02G03G04G05G06G07
+        G08G09G10G12G13G14G15G16G17G18G19G20G21G22G23G24G25
+        G26G27G28G29G30G31G32J01J02J03R01R02R03R04R05R07R08
+        R09R11R12R13R14R15R16R17R18R19R20R21R22R24  0  0  0
++        11 10  9 11  9  8  9  9  8 11  8  8  9  9 10  9  8
++         9  9  9  7 10  9  9  9  7  8  7  9 11 11  9  8  8
++         8  9 10  9  9  8  9  7  9  9  9  8  8  8  9  9  9
++        10  8  8  7  8  8  9  9  9  9  8  7  8  8  8  9  8
++         8  8  7  8  8  8  8  9  9  8 10  7  9  8  8  9  7
++         7  9  9  9  9  7  8 11 10  9  8  8  9  8  7  9  9
++        11  9  9  9 11  9  8  8  9  9  8  9  9  9  0  0  0
%c M  cc GPS ccc cccc cccc cccc cccc ccccc ccccc ccccc ccccc
%c cc cc ccc ccc cccc cccc cccc cccc ccccc ccccc ccccc ccccc
%f  0.0000000  0.000000000  0.00000000000  0.000000000000000
%f  0.0000000  0.000000000  0.00000000000  0.000000000000000
%i    0    0    0    0      0      0      0      0         0
%i    0    0    0    0      0      0      0      0         0
/* IAC                                ULTRA-RAPID PREDICTION
/* S/V CLOCKS ARE ALIGNED TO GNSS TIME                      
/* G:C1WC2W R:C1PC2P E:C1XC5X C:C2IC6I J:C1CC2S             
/* PCV:IGS14_2148 OL/AL:FES2004  NONE     YN ORB:CoN CLK:CoN
*  2021 05 15 20 15  0.00000000
PC06 -19228.332390  21596.960364  31000.838982    388.611075
PC07 -20392.582630  37211.499846   1667.555985   -225.694360
PC08  -4910.772165  28049.554312 -30853.306161   -890.384142
PC09  -2265.944340  24561.161906  34500.119051    521.382526
PC10  -8909.707603  39616.737560 -11998.717348    -42.348342
PC11 -22466.488764 -11580.827446  11924.031085    342.823652
PC12  -4949.429448 -15737.129948  22538.484602    882.678611
PC13   5081.870823  35686.084054 -21568.914019    261.992687
PC14 -11923.461334 -10593.521088 -22866.742230    739.725981
PC16 -16009.868540  22058.045425  32239.430541   -839.622096
PC19  17930.814438    955.354104  21387.204679    836.067975
PC20   5247.425263  17313.487949  21278.324231   -915.651497
PC21  11266.610670 -24088.395412  -8390.811416   -940.997622
PC22  20632.676759 -16436.633630   9061.102229   -956.288911
PC23 -13962.074733   8584.198986  22590.291253   -908.110817
PC24 -11476.556834 -25388.931374   1745.598879   -851.802459
PC25 -18502.179506 -10905.199390  17823.386544   -916.549026
PC26    451.970063 -24191.865498 -13938.823373    906.621278
PC27  -6164.811921  14948.319635 -22763.437770    532.195196
PC28 -23501.677828   6006.628226 -13800.210359    -74.059652
PC29  27192.433297   5396.972323  -3230.725008    392.713230
PC30  14741.506930  14685.823091 -18614.124649    467.098586
PC32 -11064.522663  24207.818685   8431.354141   -933.242732
PC33 -17936.335933   -886.521737 -21353.966345   -938.260932
PC34 -15388.683891 -14541.224142  18153.595720   -672.748861
PC35  23527.945122  -6635.066804  13484.959065   -279.346703
PC36  18212.153522  11696.582760 -17591.252707   -726.822634
PC37  -1709.491535  23704.718068  14630.873609   -892.459443
PC38  -2156.929007  32350.484913 -26887.606290    148.942145
PC39 -11967.785953  23459.988578  32904.361858     31.104135
PC40 -16755.862498  37426.177910 -10095.828976    161.278874
PC41 -20628.858640  16335.118889  -9239.521814   -944.497917
PC42  -4655.567003 -17815.785487 -20913.776826   -915.298109
PC43 -27020.966654  -5848.426815   3686.096763   -731.717609
PC44   5966.916515 -15203.285635  22619.442422    189.564140
PC45  13766.396327  -8701.944295 -22657.918453    441.008527
PC46  12072.790747  24993.561194  -2708.494570    269.494552
PE01 -11274.485719  23880.099868  13367.818734  -1108.474760
PE02  11215.599511 -23974.741459 -13268.812868    219.291701
PE03  20370.948871 -18250.638485 -11293.972906   -431.265083
PE04  -1299.275844  18576.214291  23021.290803   -771.619022
PE05  27780.598801  -7200.348057   7250.557854   -280.723218
PE07 -18922.809812  -7901.084842 -21338.558243   -538.058854
PE08    899.419391 -18349.422519 -23198.107541   6001.609636
PE09  19018.598573   7599.613074  21374.555149   5666.737545
PE11  23876.437440  17478.249256  -1160.045660   5976.218953
PE12   9048.892293  21123.124620 -18673.458896   5209.065277
PE13 -23746.671965 -17590.447245   1580.095032    416.439059
PE14  11310.769397 -14371.964904  14711.029876  -1432.149422
PE15  -9159.083564 -21036.684188  18698.702984    814.106361
PE18 -10519.957772  20775.405355 -22782.323221  -1567.646551
PE19 -22010.958446  17426.185009   9393.824298    277.707432
PE21 -16634.003555   5533.183704  23847.406812   -665.090145
PE24  12232.452643  17548.068902 -20464.905118   -901.861346
PE25  16644.047497  -5305.740011 -23893.109170   -533.927190
PE26 -24058.692195  -3134.595007 -16953.761658   1806.952770
PE27 -12614.084011 -16749.503953  20895.845191    -33.094742
PE30   -444.415432 -29215.660258   4762.626896   2942.866987
PE31   1203.557556  29025.355055  -5674.895873   -481.196298
PE33 -10769.521114  12102.588640 -24770.436081   -468.637054
PE36  24331.107986   3799.923502  16434.464377   -207.537881
PG01  21128.652540  12619.869670  10172.547314    688.133098
PG02 -10855.950008 -21247.321038  12264.453348   -604.491714
PG03  14295.449843   4533.563666  21837.541164   -164.874969
PG04  24362.513040   2322.978726  10403.136763   -196.399032
PG05  -7326.169879 -19323.177243 -16737.632105    -42.037546
PG06    251.936137 -18299.318301  19285.805117     16.106958
PG07  18315.057164   -351.792591 -19053.014618    151.776816
PG08  18408.382719   7739.344517 -17670.925958    -21.339703
PG09  25697.685380  -6769.552272      9.374651   -345.673836
PG10 -11691.717647  22502.117726  -7306.253164   -122.621254
PG12 -12847.144892  -7740.375944  21676.623361    -41.542476
PG13  -9686.220756 -13432.211827 -20925.887775    132.450528
PG14  13082.222397 -21798.621897  -7650.514590     85.344217
PG15 -19526.811619  -6548.656607 -17316.711553   -149.175932
PG16   1827.642539  22178.094611 -14388.747054   -325.713700
PG17  17873.486799 -13338.348320  14850.580100    442.917158
PG18 -15760.129145   4178.092912 -20989.442994    350.293432
PG19   9886.343756 -14568.938482  19561.706832      0.458505
PG20 -13636.548844 -10366.752901 -20358.986988    522.154402
PG21  21391.312418  15939.283241   3508.584781    118.355241
PG22  11571.803688  14764.075536  19062.586732   -613.469635
PG23 -15482.828608  13914.272857 -16488.238030    106.400315
PG24 -21659.885000 -14922.584797   4743.689046     79.648601
PG25 -16182.548068   6529.846660  19678.160915    137.807385
PG26  -2731.091176  25848.885758  -4759.377974     85.740147
PG27   7062.235266  13550.517292 -21932.966881   -130.629844
PG28  10515.136918 -24451.660126  -1165.292431    570.789543
PG29 -26218.718875   4405.720163     54.809513   -347.619526
PG30   8975.359501 -13207.012135 -21141.258978   -426.492269
PG31   1668.093751  19872.774348  17226.910890   -117.479920
PG32 -15113.995310  15215.437226  15669.344793     21.146498
PJ01 -29770.203155  29941.941099   4356.428285   -379.422686
PJ02 -26671.587521  26988.425291  23411.252884      0.064232
PJ03 -31312.028650  16242.348411 -18440.082418     -5.536576
PR01 -20116.259257  11811.754419 -10333.036775     79.519182
PR02 -13854.769069  18692.096407  10436.188175    478.744350
PR03    780.680769  13208.043861  21846.485217     36.017555
PR04  14585.417529    246.365951  20958.682373     86.949297
PR05  20463.876993 -12746.769920   8378.188696     71.809511
PR07  -1242.317849 -12855.995387 -21961.014150    -42.453441
PR08 -14682.288764   -220.122716 -20792.232007    -58.999693
PR09   1658.853707 -21938.516785 -12829.637981     -6.962805
PR11 -11848.170875 -12683.017124  18696.872950     -4.392616
PR12  -9616.689290   6720.684618  22672.233283    229.196825
PR13  -1804.010102  21594.702941  13442.071773    -54.764299
PR14   7203.801725  24095.116746  -4309.891471     64.314373
PR15  11785.449791  12399.034505 -18904.336972    103.834738
PR16   9234.370150  -8206.093159 -22358.021056    -15.109438
PR17  12582.397141  12906.134024 -18029.902305    424.354809
PR18  23427.069956   9626.178439  -3266.080974     76.659440
PR19  22092.861216   2289.256839  12539.757211   -143.824776
PR20   6482.319466  -8541.417064  23150.485384    -49.147766
PR21 -13701.064178 -12892.599150  17232.271876   -209.177217
PR22 -23591.852685  -9303.299251   2177.588264   -112.853806
PR24  -5725.456797   9396.112282 -23001.232975     42.787551
EOF
